[{"OBJECT_NAME":"TEVEL2-6","OBJECT_ID":"2025-052F","EPOCH":"2026-03-09T15:35:24.554400","MEAN_MOTION":15.30760889,"ECCENTRICITY":0.0004769,"INCLINATION":97.4016,"RA_OF_ASC_NODE":325.0381,"ARG_OF_PERICENTER":95.6604,"MEAN_ANOMALY":264.5181,"EPHEMERIS_TYPE":0,"CLASSIFICATION_TYPE":"U","NORAD_CAT_ID":63215,"ELEMENT_SET_NO":999,"REV_AT_EPOCH":5486,"BSTAR":0.00070909,"MEAN_MOTION_DOT":0.00021046,"MEAN_MOTION_DDOT":0},{"OBJECT_NAME":"STARLINK-35440","OBJECT_ID":"2025-253AC","EPOCH":"2026-03-09T10:19:59.264256","MEAN_MOTION":15.2763173,"ECCENTRICITY":0.00023213,"INCLINATION":42.9994,"RA_OF_ASC_NODE":214.0675,"ARG_OF_PERICENTER":285.2507,"MEAN_ANOMALY":74.8088,"EPHEMERIS_TYPE":0,"CLASSIFICATION_TYPE":"U","NORAD_CAT_ID":66345,"ELEMENT_SET_NO":999,"REV_AT_EPOCH":2020,"BSTAR":0.0011925881,"MEAN_MOTION_DOT":0.00032754,"MEAN_MOTION_DDOT":0}]
